{
  "type": "FeatureCollection",
  "features": [
    {
      "type": "Feature",
      "properties": {
        "norad_id": 41599,
        "name": "CARTOSAT-2C",
        "group": "resource",
        "lat": -75.86744452317585,
        "lon": -153.51706289323715,
        "alt_km": 519.1287670258234,
        "timestamp": "2025-12-26T19:22:38.551461+00:00",
        "meta_object_name": "CARTOSAT-2C",
        "meta_object_id": "2016-040A",
        "meta_epoch": "2025-12-26T15:05:00.747168",
        "meta_mean_motion": 15.19250913,
        "meta_eccentricity": 0.0010658,
        "meta_inclination": 97.4744,
        "meta_ra_of_asc_node": 57.7342,
        "meta_arg_of_pericenter": 18.8243,
        "meta_mean_anomaly": 341.3383,
        "meta_ephemeris_type": 0,
        "meta_classification_type": "U",
        "meta_norad_cat_id": 41599,
        "meta_element_set_no": 999,
        "meta_rev_at_epoch": 52751,
        "meta_bstar": 0.00044498743,
        "meta_mean_motion_dot": 9.328e-05,
        "meta_mean_motion_ddot": 0,
        "tle_line1": "1 41599U 16040A   25360.62848087  .00009328  00000+0  44499-3 0  9992",
        "tle_line2": "2 41599  97.4744  57.7342 0010658  18.8243 341.3383 15.19250913527510"
      },
      "geometry": {
        "type": "Point",
        "coordinates": [
          -153.51706289323715,
          -75.86744452317585
        ]
      }
    },
    {
      "type": "Feature",
      "properties": {
        "norad_id": 41601,
        "name": "SKYSAT-C1",
        "group": "resource",
        "lat": -81.19727222956125,
        "lon": 89.33167674241488,
        "alt_km": 474.2543079796169,
        "timestamp": "2025-12-26T19:22:38.551471+00:00",
        "meta_object_name": "SKYSAT-C1",
        "meta_object_id": "2016-040C",
        "meta_epoch": "2025-12-26T13:28:44.972832",
        "meta_mean_motion": 15.32839609,
        "meta_eccentricity": 7.932e-05,
        "meta_inclination": 96.9809,
        "meta_ra_of_asc_node": 36.796,
        "meta_arg_of_pericenter": 309.1958,
        "meta_mean_anomaly": 50.9214,
        "meta_ephemeris_type": 0,
        "meta_classification_type": "U",
        "meta_norad_cat_id": 41601,
        "meta_element_set_no": 999,
        "meta_rev_at_epoch": 53139,
        "meta_bstar": 0.00029988678,
        "meta_mean_motion_dot": 9.441e-05,
        "meta_mean_motion_ddot": 0,
        "tle_line1": "1 41601U 16040C   25360.56163163  .00009441  00000+0  29989-3 0  9997",
        "tle_line2": "2 41601  96.9809  36.7960 0000793 309.1958  50.9214 15.32839609531398"
      },
      "geometry": {
        "type": "Point",
        "coordinates": [
          89.33167674241488,
          -81.19727222956125
        ]
      }
    },
    {
      "type": "Feature",
      "properties": {
        "norad_id": 41603,
        "name": "LAPAN-A3",
        "group": "resource",
        "lat": 3.3190154158897305,
        "lon": -2.5639067721565785,
        "alt_km": 473.3228573232982,
        "timestamp": "2025-12-26T19:22:38.551482+00:00",
        "meta_object_name": "LAPAN-A3",
        "meta_object_id": "2016-040E",
        "meta_epoch": "2025-12-26T14:39:32.393376",
        "meta_mean_motion": 15.31666512,
        "meta_eccentricity": 0.00086379,
        "meta_inclination": 97.1437,
        "meta_ra_of_asc_node": 357.6633,
        "meta_arg_of_pericenter": 275.8769,
        "meta_mean_anomaly": 84.1488,
        "meta_ephemeris_type": 0,
        "meta_classification_type": "U",
        "meta_norad_cat_id": 41603,
        "meta_element_set_no": 999,
        "meta_rev_at_epoch": 52838,
        "meta_bstar": 0.00015289322,
        "meta_mean_motion_dot": 4.605e-05,
        "meta_mean_motion_ddot": 0,
        "tle_line1": "1 41603U 16040E   25360.61079159  .00004605  00000+0  15289-3 0  9991",
        "tle_line2": "2 41603  97.1437 357.6633 0008637 275.8769  84.1488 15.31666512528383"
      },
      "geometry": {
        "type": "Point",
        "coordinates": [
          -2.5639067721565785,
          3.3190154158897305
        ]
      }
    },
    {
      "type": "Feature",
      "properties": {
        "norad_id": 41604,
        "name": "BIROS",
        "group": "resource",
        "lat": 23.978690725127738,
        "lon": 29.699028374100216,
        "alt_km": 286.55174271064607,
        "timestamp": "2025-12-26T19:22:38.551493+00:00",
        "meta_object_name": "BIROS",
        "meta_object_id": "2016-040F",
        "meta_epoch": "2025-12-26T14:45:38.450304",
        "meta_mean_motion": 15.95497863,
        "meta_eccentricity": 0.000398,
        "meta_inclination": 97.0651,
        "meta_ra_of_asc_node": 32.6597,
        "meta_arg_of_pericenter": 120.7736,
        "meta_mean_anomaly": 239.3933,
        "meta_ephemeris_type": 0,
        "meta_classification_type": "U",
        "meta_norad_cat_id": 41604,
        "meta_element_set_no": 999,
        "meta_rev_at_epoch": 53093,
        "meta_bstar": 0.00064877469,
        "meta_mean_motion_dot": 0.00256097,
        "meta_mean_motion_ddot": 2.7500219e-05,
        "tle_line1": "1 41604U 16040F   25360.61502836  .00256097  27500-4  64877-3 0  9995",
        "tle_line2": "2 41604  97.0651  32.6597 0003980 120.7736 239.3933 15.95497863530932"
      },
      "geometry": {
        "type": "Point",
        "coordinates": [
          29.699028374100216,
          23.978690725127738
        ]
      }
    },
    {
      "type": "Feature",
      "properties": {
        "norad_id": 41727,
        "name": "GAOFEN-3",
        "group": "resource",
        "lat": -57.612733817117416,
        "lon": 19.65628431737613,
        "alt_km": 758.5490945648035,
        "timestamp": "2025-12-26T19:22:38.551503+00:00",
        "meta_object_name": "GAOFEN-3",
        "meta_object_id": "2016-049A",
        "meta_epoch": "2025-12-26T14:39:12.485952",
        "meta_mean_motion": 14.42216892,
        "meta_eccentricity": 0.00010804,
        "meta_inclination": 98.404,
        "meta_ra_of_asc_node": 5.9849,
        "meta_arg_of_pericenter": 54.2048,
        "meta_mean_anomaly": 305.9242,
        "meta_ephemeris_type": 0,
        "meta_classification_type": "U",
        "meta_norad_cat_id": 41727,
        "meta_element_set_no": 999,
        "meta_rev_at_epoch": 49377,
        "meta_bstar": 3.1898517e-05,
        "meta_mean_motion_dot": 6.2e-07,
        "meta_mean_motion_ddot": 0,
        "tle_line1": "1 41727U 16049A   25360.61056118  .00000062  00000+0  31899-4 0  9996",
        "tle_line2": "2 41727  98.4040   5.9849 0001080  54.2048 305.9242 14.42216892493779"
      },
      "geometry": {
        "type": "Point",
        "coordinates": [
          19.65628431737613,
          -57.612733817117416
        ]
      }
    },
    {
      "type": "Feature",
      "properties": {
        "norad_id": 41771,
        "name": "SKYSAT-C4",
        "group": "resource",
        "lat": -17.353111936427197,
        "lon": 27.492924192348966,
        "alt_km": 444.6997603708651,
        "timestamp": "2025-12-26T19:22:38.551514+00:00",
        "meta_object_name": "SKYSAT-C4",
        "meta_object_id": "2016-058B",
        "meta_epoch": "2025-12-26T13:13:33.092544",
        "meta_mean_motion": 15.4264534,
        "meta_eccentricity": 0.00026382,
        "meta_inclination": 96.9364,
        "meta_ra_of_asc_node": 25.0687,
        "meta_arg_of_pericenter": 121.6623,
        "meta_mean_anomaly": 238.4883,
        "meta_ephemeris_type": 0,
        "meta_classification_type": "U",
        "meta_norad_cat_id": 41771,
        "meta_element_set_no": 999,
        "meta_rev_at_epoch": 51880,
        "meta_bstar": 0.00036601028,
        "meta_mean_motion_dot": 0.00015874,
        "meta_mean_motion_ddot": 0,
        "tle_line1": "1 41771U 16058B   25360.55107746  .00015874  00000+0  36601-3 0  9994",
        "tle_line2": "2 41771  96.9364  25.0687 0002638 121.6623 238.4883 15.42645340518809"
      },
      "geometry": {
        "type": "Point",
        "coordinates": [
          27.492924192348966,
          -17.353111936427197
        ]
      }
    },
    {
      "type": "Feature",
      "properties": {
        "norad_id": 41772,
        "name": "SKYSAT-C5",
        "group": "resource",
        "lat": -14.70167692147881,
        "lon": -137.89705806014317,
        "alt_km": 465.8672594861091,
        "timestamp": "2025-12-26T19:22:38.551524+00:00",
        "meta_object_name": "SKYSAT-C5",
        "meta_object_id": "2016-058C",
        "meta_epoch": "2025-12-26T13:50:05.273088",
        "meta_mean_motion": 15.34128046,
        "meta_eccentricity": 0.00040626,
        "meta_inclination": 97.0739,
        "meta_ra_of_asc_node": 43.7488,
        "meta_arg_of_pericenter": 224.1066,
        "meta_mean_anomaly": 135.9854,
        "meta_ephemeris_type": 0,
        "meta_classification_type": "U",
        "meta_norad_cat_id": 41772,
        "meta_element_set_no": 999,
        "meta_rev_at_epoch": 51728,
        "meta_bstar": 0.00030147639,
        "meta_mean_motion_dot": 9.887e-05,
        "meta_mean_motion_ddot": 0,
        "tle_line1": "1 41772U 16058C   25360.57644992  .00009887  00000+0  30148-3 0  9993",
        "tle_line2": "2 41772  97.0739  43.7488 0004062 224.1066 135.9854 15.34128046517287"
      },
      "geometry": {
        "type": "Point",
        "coordinates": [
          -137.89705806014317,
          -14.70167692147881
        ]
      }
    }
  ]
}